City,State,Zip_Code,Hospital_Id
Acton,MA,1720,1
Cambridge,MA,2141,2
Cambridge,MA,2139,3
Marlborough,MA,1752,4
cambridge,MA,2139,5
Cambridge,MA,2139,6
Burlington,MA,1803,7
Burlington,MA,1805,8
Cambridge,MA,2130,9
Burlington,MA,1805,10
Burlington,MA,1805,11
Cambridge,MA,2139,12
Burlington,MA,1805,13
Burlington,MA,1805,14
Burlington,MA,1805,15
Burlington,MA,1805,16
Cambridge,MA,2139,17
Cambridge,MA,2139,18
Burlington,VT,5401,19
Quincy,MA,2169,20
Cambridge,MA,2139,21
Cambridge,MA,2139,22
Burlington,MA,1805,23
Cambridge,MA,2459,24
Cambridge,MA,2141,25
Cambridge,MA,2140,26
Burlington,MA,1805,27
Burlington,MA,1805,28
Cambridge,MA,2138,29
Burlington,MA,1805,30
Acton,MA,1720,31
Cambridge,MA,2139,32
Cambridge,MA,2139,33
Cambridge,MA,2139,34
Cambridge,MA,2139,35
Burlington,MA,1805,36
Cambridge,MA,2139,37
Burlington,MA,1805,38
Cambridge,MA,2138,39
Burlington,MA,1805,40
Burlington,MA,2140,41
Cambridge,MA,2138,42
Cambridge,MA,2139,43
Northampton,MA,1060,44
Burlington,MA,1805,45
Cambridge,MA,2139,46
Cambridge,MA,2139,47
Cambridge,MA,2138,48
Burlington,MA,1803,49
Cambridge,MA,2139,50
Cambridge,MA,2139,51
Burlington,VT,5401,52
Burlington,MA,1805,53
Cambridge,MA,2138,54
Cambridge,MA,2139,55
Acton,MA,1720,56
Acton,AL,1720,57
Cambridge,MA,2138,58
Burlington,MA,1805,59
Cambridge,MA,2138,60
Cambridge,MA,2141,61
Cambridge,MA,2138,62
Burlington,VT,5401,63
Burlington,MA,1803,64
Cambridge,MA,2138,65
Cambridge,MA,2138,66
Burlington,MA,1805,67
Cambridge,MA,2138,68
Cambridge,MA,2139,69
Cambridge,MA,2139,70
Burlington,MA,1803,71
Burlington,VT,5405,72
Quincy,MA,2169,73
Quincy,MA,2169,74
Cambridge,MA,2139,75
Cambridge,MA,2139,76
Cambridge,MA,2142,77
Quincy,MA,2169,78
Burlington,MA,1805,79
Cambridge,MA,2138,80
Burlington,MA,1805,81
Cambridge,MA,2139,82
Burlington,MA,1805,83
Quincy,MA,2169,84
Burlington,MA,1805,85
Burlington,VT,5401,86
Cambridge,MA,2139,87
Northampton,MA,1060,88
Cambridge,MA,2138,89
Cambridge,MA,2139,90
Cambridge,MA,2238,91
Burlington,MA,1805,92
Cambridge,MA,2138,93
Cambridge,MA,2141,94
Cambridge,MA,2139,95
Cambridge,MA,2138,96
Cambridge,MA,2138,97
Cambridge,MA,2138,98
CLINTON,MD,2073,99
Acton,MA,1720,100
Burlington,MA,1805,101
Northampton,MA,1060,102
Burlington,MA,1805,103
Quincy,MA,2169,104
Cambridge,MA,2138,105
Cambridge,MA,2139,106
Cambridge,MA,2139,107
Acton,MA,1720,108
Cambridge,MA,2139,109
Cambridge,MA,2138,110
Burlington,MA,1805,111
Cambridge,MA,2142,112
Burlington,MA,1803,113
Acton,MA,1720,114
Cambridge,MA,2139,115
Cambridge,MA,2139,116
Cambridge,MA,2149,117
Cambridge,MA,2139,118
Cambridge,MA,2139,119
Cambridge,MA,2139,120
Cambridge,MA,2139,121
Cambridge,MA,2139,122
Burlington,MA,1805,123
Cambridge,MA,2138,124
Cambridge,MA,2138,125
Cambridge,MA,2139,126
Burlington,MA,1805,127
Cambridge,MA,2138,128
Burlington,MA,1803,129
Cambridge,MA,2139,130
Cambridge,MA,2139,131
Cambridge,MA,2138,132
Cambridge,MA,2139,133
Cambridge,MA,2142,134
Cambridge,MA,2138,135
Cambridge,MA,2138,136
Cambridge,MA,2139,137
Acton,MA,1720,138
Burlington,MA,1803,139
Burlington,VT,5477,140
Cambridge,MA,2139,141
Cambridge,MA,2139,142
Cambridge,MA,2139,143
Cambridge,MA,2139,144
Cambridge,MA,2138,145
Burlington,MA,1805,146
Cambridge,MA,2139,147
Cambridge,MA,2139,148
Cambridge,MA,2139,149
Cambridge,MA,2138,150
Clinton,MA,1510,151
Cambridge,MA,2139,152
Cambridge,MA,2138,153
Northampton,MA,1060,154
Cambridge,MA,2139,155
Burlington,MA,1803,156
Cambridge,MA,2138,157
Burlington,MA,1805,158
Burlington,MA,1805,159
Burlington,MA,1803,160
Cambridge,MA,2139,161
Cambridge,MA,2138,162
Burlington,MA,1805,163
Marlborough,MA,1752,164
Cambridge,MA,2139,165
cambridge,MA,2138,166
Cambridge,MA,2139,167
Cambridge,MA,2139,168
Cambridge,MA,2138,169
Burlington,MA,1805,170
Cambridge,MA,2139,171
Cambridge,MA,2138,172
Cambridge,MA,2138,173
Lincoln,MA,1773,174
Cambridge,MA,2141,175
Burlington,MA,1805,176
Burlington,MA,1805,177
Burlington,MA,1805,178
Cambridge,MA,2138,179
Cambridge,MA,2140,180
Northampton,MA,1060,181
Cambridge,MA,2139,182
Burlington,MA,1805,183
Burlington,MA,1805,184
burlington,MA,1805,185
Burlington,MA,1805,186
Cambridge,MA,2139,187
Cambridge,MA,2138,188
Burlington,MA,1805,189
Quincy,MA,2171,190
Cambridge,MA,2138,191
Cambridge,MA,2138,192
Burlington,MA,1805,193
Cambridge,MA,2139,194
Burlington,MA,1803,195
Burlington,MA,1805,196
Cambridge,MA,2139,197
Cambridge,MA,2139,198
Clinton,SC,2932,199
Quincy,MA,2169,200
Burlington,VT,5401,201
Burlington,MA,1805,202
Burlington,MA,1805,203
Cambridge,MA,2142,204
Cambridge,MA,2139,205
Burlington,MA,1803,206
Burlington,MA,1805,207
Quincy,MA,2169,208
Cambridge,MA,2138,209
Burlington,MA,1805,210
Quincy,MA,2169,211
Burlington,MA,1803,212
Cambridge,MA,2139,213
Cambridge,MA,2139,214
Cambridge,MA,2139,215
Burlington,MA,1805,216
Burlington,MA,1803,217
Quincy,MA,2169,218
Marlborough,MA,1752,219
Quincy,MA,2169,220
Burlington,MA,1805,221
Northampton,MA,1060,222
Burlington,VT,5401,223
Quincy,MA,2169,224
Burlington,MA,1805,225
Quincy,MA,2169,226
Cambridge,MA,2138,227
Cambridge,MA,2139,228
Cambridge,MA,2138,229
Northampton,MA,1060,230
Burlington,MA,1805,231
Cambridge,MA,2139,232
Quincy,MA,2169,233
Marlborough,MA,1752,234
Cambridge,MA,2142,235
Lincoln,RI,2865,236
Burlington,MA,1805,237
Burlington,MA,1805,238
Cambridge,MA,2139,239
Cambridge,MA,2138,240
Marlborough,MA,1752,241
Cambridge,MA,2139,242
Burlington,MA,1805,243
Cambridge,MA,2139,244
Burlington,MA,1805,245
Marlborough,MA,1752,246
Cambridge,MA,2138,247
Burlington,MA,1803,248
Burlington,MA,1805,249
Cambridge,MA,2139,250
Quincy,MA,2169,251
Burlington,VT,5405,252
Cambridge,MA,2139,253
Burlington,MA,1805,254
Cambridge,MA,2138,255
Cambridge,MA,2139,256
Cambridge,MA,2139,257
Burlington,MA,1805,258
Burlington,MA,1805,259
Cambridge,MA,2138,260
Cambridge,MA,2238,261
Cambridge,MA,2138,262
Quincy,MA,2169,263
Cambridge,MA,2138,264
Burlington,MA,1805,265
Cambridge,MA,2139,266
Burlington,MA,1805,267
Northampton,MA,1060,268
Cambridge,MA,2139,269
Cambridge,MA,2142,270
Burlington,MA,1805,271
Cambridge,MA,2138,272
Cambridge,MA,2138,273
Burlington,VT,5401,274
Burlington,MA,1805,275
Burlington,MA,1805,276
Burlington,MA,1805,277
Burlington,MA,1805,278
Burlington,MA,1805,279
Cambridge,MA,2141,280
Cambridge,MA,2238,281
Northampton,MA,1060,282
Cambridge,MA,2139,283
Burlington,MA,1805,284
NORTHAMPTON,MA,1060,285
Burlington,MA,1805,286
CAMBRIDGE,MA,2141,287
Burlington,MA,1805,288
Cambridge,MA,2141,289
Burlington,MA,1805,290
Burlington,MA,1805,291
Burlington,MA,1805,292
Cambridge,MA,2141,293
Cambridge,MA,2139,294
Cambridge,MA,2138,295
Cambridge,MA,2139,296
Burlington,MA,1805,297
Burlington,MA,1803,298
Burlington,MA,1805,299
Burlington,MA,1803,300
Cambridge,MA,2141,301
Cambridge,MA,2139,302
Cambridge,MA,2139,303
Burlington,MA,1805,304
Cambridge,MA,2139,305
Northampton,MA,1060,306
Burlington,MA,1805,307
Northampton,MA,1060,308
Burlington,MA,1805,309
Quincy,MA,2169,310
Cambridge,MA,2139,311
Burlington,MA,1805,312
Northampton,MA,0,313
Burlington,MA,1805,314
Northampton,MA,1060,315
Cambridge,MA,2139,316
Burlington,MA,1805,317
Cambridge,MA,2139,318
Burlington,MA,2482,319
CAMBRIDGE,MA,2138,320
Cambridge,MA,2139,321
Burlington,VT,5401,322
Cambridge,MA,2139,323
Lincoln,RI,2865,324
Cambridge,MA,2138,325
Northampton,MA,1060,326
Cambridge,MA,2139,327
Northampton,MA,1060,328
Cambridge,MA,2139,329
Burlington,MA,1805,330
Cambridge,MA,2140,331
Burlington,MA,1805,332
Burlington,MA,1805,333
Quincy,MA,2169,334
Burlington,MA,1803,335
Cambridge,MA,2138,336
Northampton,MA,1060,337
Lincoln,RI,2865,338
Cambridge,MA,2139,339
Quincy,MA,2169,340
Cambridge,MA,2138,341
Burlington,MA,1805,342
Burlington,MA,1805,343
Cambridge,MA,2138,344
Burlington,MA,1805,345
Quincy,MA,2169,346
Cambridge,MA,2138,347
Burlington,MA,1805,348
Burlington,MA,1805,349
Burlington,MA,1805,350
Cambridge,MA,2139,351
Cambridge,MA,2138,352
Burlington,MA,1805,353
Acton,MA,1720,354
Cambridge,MA,2139,355
Cambridge,MA,2139,356
Cambridge,MA,2138,357
Cambridge,MA,2139,358
Burlington,MA,1805,359
Burlington,MA,1805,360
Burlington,MA,1805,361
Burlington,MA,1805,362
Northampton,MA,1060,363
Burlington,MA,1805,364
Cambridge,MA,2139,365
Cambridge,MA,2142,366
Cambridge,MA,2142,367
Cambridge,MA,2138,368
Burlington,MA,1805,369
Marlborough,MA,1752,370
Burlington,MA,1805,371
Cambridge,MA,2138,372
BURLINGTON,MA,1805,373
Cambridge,MA,2139,374
Burlington,WI,5310,375
Cambridge,MA,2141,376
CAMBRIDGE,MA,2139,377
Burlington,MA,1805,378
Cambridge,MA,2139,379
Burlington,MA,1805,380
Burlington,MA,1805,381
Cambridge,MA,2142,382
Burlington,VT,5401,383
Cambridge,MA,2140,384
Cambridge,MA,2138,385
Cambridge,MA,2138,386
Burlington,MA,1805,387
Burlington,MA,1805,388
Cambridge,MA,2139,389
Cambridge,MA,2138,390
Burlington,MA,1805,391
Cambridge,MA,2238,392
Cambridge,MA,2139,393
Burlington,MA,1805,394
Burlington,MA,1805,395
Cambridge,MA,2138,396
Burlington,MA,1803,397
Marlborough,MA,1752,398
Cambridge,MA,2138,399
Burlington,MA,1803,400
Cambridge,MA,2114,401
Marlborough,MA,1752,402
Burlington,VT,5401,403
Burlington,MA,1805,404
Cambridge,MA,2139,405
Cambridge,MA,2139,406
Cambridge,MA,2139,407
NORTHAMPTON,MA,1060,408
Burlington,MA,1803,409
Burlington,MA,1805,410
Burlington,MA,1805,411
Cambridge,MA,2138,412
Cambridge,MA,2139,413
Acton,MA,1720,414
Burlington,VT,5401,415
Burlington,MA,1805,416
Cambridge,MA,2138,417
Cambridge,MA,2138,418
Cambridge,MA,2139,419
Burlington,MA,1805,420
Cambridge,MA,2139,421
Northampton,MA,1060,422
Burlington,MA,1805,423
Cambridge,MA,2138,424
Quincy,MA,2169,425
Burlington,MA,1805,426
Acton,MA,1720,427
Cambridge,MA,2142,428
Burlington,MA,1805,429
Burlington,MA,1805,430
Burlington,MA,1805,431
Burlington,MA,1805,432
Cambridge,MA,2142,433
Cambridge,MA,2141,434
Cambridge,MA,2139,435
Burlington,MA,1805,436
Burlington,MA,1805,437
Cambridge,MA,2451,438
Quincy,MA,2169,439
Burlington,VT,5401,440
Northampton,MA,1060,441
Cambridge,MA,2138,442
Quincy,MA,2169,443
Cambridge,MA,2139,444
Cambridge,MA,2139,445
cambridge,MA,2139,446
Cambridge,MA,2144,447
Cambridge,MA,2109,448
Northampton,MA,1062,449
Quincy,MA,2169,450
Marlborough,MA,1545,451
Cambridge,MA,2139,452
Cambridge,MA,2139,453
Cambridge,MA,2139,454
Burlington,MA,1805,455
Northampton,MA,1060,456
Northampton,MA,1061,457
Quincy,MA,2169,458
Cambridge,MA,2139,459
Cambridge,MA,2142,460
Burlington,MA,1805,461
Cambridge,MA,2138,462
Northampton,MA,1060,463
Burlington,MA,1805,464
Burlington,MA,1805,465
Burlington,MA,1805,466
Northampton,MA,1060,467
Quincy,MA,2169,468
Cambridge,MA,2139,469
Burlington,MA,1805,470
Quincy,MA,2169,471
Burlington,MA,1803,472
Cambridge,MA,2138,473
Cambridge,MA,2142,474
Burlington,MA,1803,475
Cambridge,MA,2215,476
Cambridge,MA,2138,477
Cambridge,MA,2139,478
Cambridge,MA,2139,479
Cambridge,MA,2139,480
Cambridge,MA,2140,481
Quincy,MA,2169,482
Cambridge,MA,2139,483
Cambridge,MA,2139,484
Cambridge,MA,2142,485
Cambridge,MA,2138,486
Cambridge,MA,2138,487
Burlington,MA,1805,488
Lincoln,RI,2865,489
Cambridge,MA,2138,490
Cambridge,MA,2140,491
Cambridge,MA,2139,492
Cambridge,MA,2138,493
Cambridge,MA,2139,494
Burlington,MA,1805,495
Cambridge,MA,2139,496
Burlington,MA,1805,497
Marlborough,MA,1752,498
Quincy,MA,2169,499
Burlington,MA,1805,500
Lincoln,MA,1773,501
Cambridge,MA,2139,502
Burlington,MA,1805,503
Northampton,MA,1060,504
Cambridge,MA,2139,505
Quincy,MA,2169,506
Burlington,MA,1805,507
Burlington,MA,1803,508
Cambridge,MA,2138,509
Cambridge,MA,2138,510
Cambridge,MA,2139,511
Marlborough,MA,1752,512
Burlington,MA,1805,513
Burlington,MA,1805,514
Cambridge,MA,2141,515
Burlington,MA,1805,516
Acton,MA,1720,517
Burlington,MA,1805,518
Burlington,MA,1805,519
Burlington,MA,1805,520
Burlington,MA,1805,521
quincy,MA,2169,522
Burlington,MA,1803,523
Burlington,MA,1803,524
Cambridge,MA,2138,525
Cambridge,MA,2139,526
Cambridge,MA,2139,527
Lincoln,RI,2865,528
Acton,MA,1720,529
Cambridge,MA,2139,530
Burlington,MA,1805,531
Burlington,MA,1805,532
Burlington,MA,1805,533
Burlington,MA,1805,534
Cambridge,MA,2139,535
Burlington,VT,5401,536
Cambridge,MA,2138,537
Acton,MA,1720,538
Cambridge,MA,2139,539
Burlington,MA,1803,540
Cambridge,MA,2139,541
Northampton,MA,1060,542
Northampton,MA,1060,543
Cambridge,MA,2238,544
Cambridge,MA,2142,545
Cambridge,MA,2138,546
Burlington,MA,1805,547
Cambridge,MA,2139,548
Burlington,MA,1805,549
Burlington,MA,1805,550
Cambridge,MA,2138,551
Northampton,MA,1060,552
Cambridge,MA,2141,553
Cambridge,MA,2139,554
Burlington,MA,1805,555
Burlington,MA,1803,556
Burlington,MA,1805,557
Northampton,MA,1060,558
Cambridge,MA,2138,559
Burlington,MA,1805,560
Acton,MA,1720,561
Burlington,MA,1803,562
Cambridge,MA,2139,563
Cambridge,MA,2139,564
Cambridge,MA,2138,565
Burlington,MA,1805,566
CAMBRIDGE,MA,2139,567
Cambridge,MA,2142,568
Quincy,MA,2169,569
Cambridge,MA,2140,570
Cambridge,MA,2139,571
Cambridge,MA,2138,572
Burlington,MA,1803,573
Burlington,MA,1805,574
Cambridge,MA,2139,575
Cambridge,MA,2139,576
Burlington,MA,1803,577
Cambridge,MA,2138,578
Burlington,MA,1805,579
Cambridge,MA,2138,580
Cambridge,MA,2139,581
Cambridge,MA,2142,582
Cambridge,MA,2138,583
Cambridge,MA,2139,584
Burlington,MA,1805,585
Cambridge,MA,2139,586
Cambridge,MA,2139,587
Cambridge,MA,2138,588
Quincy,MA,2169,589
Burlington,MA,1805,590
Burlington,MA,1805,591
Cambridge,MA,2138,592
Quincy,MA,2169,593
Burlington,MA,1805,594
Burlington,MA,1805,595
Quincy,MA,2169,596
Cambridge,MA,2140,597
Burlington,MA,1803,598
Northampton,MA,1060,599
Cambridge,MA,2139,600
Cambridge,MA,2139,601
Cambridge,MA,2142,602
NORTHAMPTON,MA,1060,603
Cambridge,MA,2139,604
Lincoln,NE,6850,605
Burlington,VT,5465,606
Northampton,MA,1060,607
Burlington,MA,1803,608
Burlington,VT,5401,609
Cambridge,MA,2139,610
Cambridge,MA,2139,611
Acton,MA,1720,612
Burlington,MA,1803,613
Northampton,MA,1060,614
Burlington,MA,1805,615
Burlington,MA,1805,616
Cambridge,MA,2139,617
Marlborough,MA,1752,618
Cambridge,MA,2139,619
Cambridge,MA,2139,620
Burlington,MA,1805,621
Quincy,MA,2169,622
Northampton,MA,1060,623
Cambridge,MA,2139,624
Northampton,MA,1060,625
Cambridge,MA,2138,626
Cambridge,MA,2138,627
Cambridge,MA,2141,628
Cambridge,MA,2139,629
Burlington,MA,1805,630
Burlington,MA,1805,631
Cambridge,MA,2142,632
Northampton,MA,1060,633
Quincy,MA,2169,634
Quincy,MA,2169,635
Burlington,MA,1805,636
Cambridge,MA,2138,637
Cambridge,MA,2138,638
Burlington,MA,1805,639
Cambridge,MA,2139,640
Cambridge,MA,2139,641
Northampton,MA,1060,642
Cambridge,MA,2138,643
Cambridge,MA,2139,644
Burlington,MA,1805,645
Northampton,MA,1060,646
Cambridge,MA,2238,647
Burlington,MA,1803,648
Cambridge,MA,2138,649
Quincy,MA,2169,650
Cambridge,MA,2139,651
Quincy,MA,2169,652
Cambridge,MA,2139,653
Burlington,MA,1805,654
Cambridge,MA,2138,655
Cambridge,MA,2138,656
Cambridge,MA,2138,657
Burlington,MA,1803,658
Cambridge,MA,2138,659
Cambridge,MA,2139,660
Burlington,MA,1805,661
Cambridge,MA,2138,662
Marlborough,MA,1752,663
Burlington,MA,1805,664
Cambridge,MA,2140,665
Acton,MA,1720,666
Cambridge,MA,2139,667
Quincy,MA,2169,668
Burlington,MA,1803,669
Cambridge,MA,2138,670
Burlington,MA,1803,671
Cambridge,MA,2139,672
Cambridge,MA,2139,673
Northampton,MA,1060,674
Cambridge,MA,2141,675
Cambridge,MA,2139,676
Cambridge,MA,2138,677
Cambridge,MA,2138,678
Quincy,MA,2169,679
Cambridge,MA,2139,680
Cambridge,MA,2138,681
Northampton,MA,1060,682
Cambridge,MA,2139,683
Cambridge,MA,2138,684
Burlington,MA,1805,685
Burlington,MA,1805,686
Cambridge,MA,2139,687
Cambridge,MA,2138,688
Burlington,MA,1805,689
Burlington,MA,1805,690
Northampton,MA,1061,691
Quincy,MA,2169,692
Cambridge,MA,2138,693
Burlington,MA,1805,694
Cambridge,MA,2138,695
Cambridge,MA,2139,696
Cambridge,MA,2142,697
Quincy,MA,2169,698
Burlington,MA,1805,699
Burlington,MA,1803,700
Quincy,MA,2169,701
Quincy,MA,2170,702
Quincy,MA,2169,703
Cambridge,MA,2138,704
Northampton,MA,1060,705
Cambridge,MA,2139,706
Cambridge,MA,2138,707
Quincy,MA,2169,708
Cambridge,MA,2139,709
Burlington,MA,1805,710
Cambridge,MA,2138,711
Cambridge,MA,2138,712
Cambridge,MA,2138,713
Cambridge,MA,2140,714
Cambridge,MA,2139,715
Burlington,MA,1805,716
Northampton,MA,1060,717
Burlington,MA,1805,718
Burlington,MA,1805,719
Burlington,MA,1805,720
Cambridge,MA,2139,721
Cambridge,MA,2140,722
Cambridge,MA,2142,723
Cambridge,MA,2139,724
Burlington,VT,5401,725
Cambridge,MA,2138,726
Quincy,MA,2169,727
Cambridge,MA,2138,728
Cambridge,MA,2139,729
Burlington,MA,1805,730
Burlington,MA,1805,731
Burlington,MA,1803,732
Northampton,MA,1060,733
Northampton,MA,1061,734
Quincy,MA,2169,735
Burlington,MA,1805,736
Burlington,MA,1803,737
Quincy,MA,2169,738
Burlington,MA,1805,739
Northampton,MA,1060,740
Quincy,MA,2171,741
Cambridge,MA,2140,742
Burlington,MA,1803,743
Marlborough,MA,1752,744
Cambridge,MA,2139,745
Cambridge,MA,2142,746
Cambridge,MA,2139,747
Burlington,MA,1805,748
Quincy,MA,2169,749
Clinton,MD,2073,750
Burlington,MA,1805,751
Marlborough,MA,1752,752
Cambridge,MA,2139,753
Burlington,MA,1802,754
Cambridge,MA,2138,755
Burlington,MA,1805,756
Northampton,MA,1060,757
Cambridge,MA,2141,758
Burlington,MA,1803,759
Burlington,MA,1805,760
Cambridge,MA,2138,761
Northampton,MA,1039,762
Cambridge,MA,2138,763
Cambridge,MA,2142,764
Burlington,MA,1805,765
Quincy,MA,2169,766
Cambridge,MA,2138,767
Burlington,MA,1805,768
Cambridge,MA,2139,769
Burlington,MA,1805,770
Burlington,MA,1805,771
Burlington,MA,1805,772
Cambridge,MA,2238,773
Acton,MA,1720,774
Cambridge,MO,2161,775
Cambridge,MA,2139,776
Northampton,MA,1060,777
Cambridge,MA,2139,778
Cambridge,MA,2139,779
Cambridge,MA,2142,780
Cambridge,MA,2138,781
Northampton,MA,1060,782
Burlington,MA,1805,783
Northampton,MA,1060,784
Cambridge,MA,2139,785
Cambridge,MA,2139,786
Acton,MA,1720,787
Northampton,MA,2139,788
Cambridge,MA,2139,789
Cambridge,MA,1752,790
Cambridge,MA,1060,791
Cambridge,MA,2139,792
Cambridge,MA,2138,793
Burlington,MA,2138,794
Quincy,MA,2138,795
Quincy,MA,2138,796
Cambridge,MA,1805,797
Burlington,MA,2141,798
Cambridge,MA,2171,799
Burlington,MA,2169,800
Cambridge,MA,2138,801
Burlington,MA,1805,802
Quincy,MA,2142,803
Burlington,MA,2139,804
Cambridge,MA,1805,805
Quincy,MA,2139,806
Burlington,MA,5401,807
Northampton,MA,2139,808
Cambridge,MA,1805,809
Quincy,MA,2171,810
Cambridge,MA,2135,811
Burlington,MA,2114,812
Acton,MA,2169,813
Cambridge,MA,1805,814
Cambridge,MA,2142,815
Cambridge,MA,1060,816
Burlington,MA,2140,817
Cambridge,MA,2169,818
Northampton,MA,2140,819
Cambridge,MA,2138,820
Burlington,MA,1805,821
Northampton,MA,2139,822
Cambridge,MA,1720,823
burlington,MA,2138,824
Cambridge,MA,2139,825
Cambridge,MA,2139,826
Cambridge,MA,1805,827
Cambridge,MA,2142,828
Quincy,MA,1060,829
Northampton,MA,2138,830
Marlborough,MA,1805,831
Burlington,MA,1060,832
Burlington,MA,2138,833
Cambridge,MA,1805,834
Marlborough,MA,2138,835
Cambridge,MA,1060,836
Quincy,MA,2142,837
Clinton,MA,2141,838
Cambridge,MA,2139,839
Cambridge,MA,2138,840
Burlington,MA,2138,841
Cambridge,MA,2169,842
Quincy,MA,1060,843
Burlington,MA,1752,844
Burlington,MA,1910,845
Cambridge,MA,2139,846
Marlborough,MA,1805,847
Cambridge,MA,2142,848
Cambridge,MA,2140,849
Burlington,MA,1752,850
Burlington,MA,1720,851
Burlington,MA,2139,852
Cambridge,MA,2139,853
Burlington,MA,2171,854
Cambridge,MA,1510,855
Burlington,MA,2139,856
Quincy,MA,1805,857
Burlington,MA,2139,858
Burlington,MA,2139,859
Cambridge,MA,1805,860
Northampton,MA,2142,861
Cambridge,MA,2139,862
Cambridge,MA,2169,863
Lincoln,RI,1803,864
Clinton,MA,1805,865
Cambridge,MA,2142,866
Marlborough,MA,1752,867
Burlington,MA,2142,868
Cambridge,MA,2139,869
Burlington,MA,1805,870
Burlington,MA,2139,871
Cambridge,MA,1805,872
Burlington,MA,1805,873
Burlington,MA,2138,874
Cambridge,MA,1803,875
Cambridge,MA,2138,876
Cambridge,MA,1805,877
Northampton,MA,2169,878
Northampton,MA,1805,879
Northampton,MA,1805,880
Cambridge,MA,2142,881
Burlington,MA,2139,882
Cambridge,MA,2865,883
Burlington,MA,1060,884
Marlborough,MA,2139,885
Burlington,MA,2141,886
Cambridge,MA,2138,887
Cambridge,MA,2139,888
Burlington,MA,2139,889
Burlington,MA,2865,890
Quincy,MA,1510,891
Cambridge,MA,2139,892
Cambridge,MA,1752,893
Cambridge,MA,2142,894
Cambridge,MA,2139,895
Burlington,MA,1805,896
Cambridge,MA,2138,897
Cambridge,MA,1805,898
Lincoln,MA,1805,899
Cambridge,MA,6851,900
Burlington,MA,2138,901
Burlington,MA,1805,902
Cambridge,MA,1805,903
Cambridge,MA,2138,904
Burlington,MA,2139,905
CAMBRIDGE,MA,2138,906
Burlington,MA,2139,907
Northampton,MA,1060,908
Cambridge,MA,1060,909
Cambridge,MA,1060,910
Quincy,MA,2138,911
Acton,MA,1805,912
Cambridge,MA,2139,913
Cambridge,MA,1805,914
Cambridge,MA,1752,915
Cambridge,MA,1805,916
Cambridge,MA,1060,917
Quincy,MA,2139,918
Northampton,MA,2139,919
Quincy,MA,1805,920
Cambridge,MA,1805,921
Burlington,MA,2169,922
Cambridge,MA,2139,923
Burlington,VT,2139,924
Cambridge,MA,2139,925
Quincy,MA,2138,926
Cambridge,MA,1805,927
Quincy,MA,2142,928
Northampton,MA,2138,929
Cambridge,MA,1773,930
Cambridge,MA,2138,931
Cambridge,MA,1805,932
Burlington,MA,1805,933
Cambridge,MA,2139,934
Cambridge,MA,2238,935
Quincy,MA,1805,936
Clinton,MD,2138,937
Cambridge,MA,1805,938
cambridge,MA,1060,939
Burlington,MA,2318,940
Burlington,MA,2142,941
Burlington,MA,5500,942
Cambridge,MA,2139,943
Cambridge,MA,2171,944
Cambridge,MA,1720,945
Northampton,MA,2138,946
Burlington,MA,2138,947
Burlington,MA,2138,948
Cambridge,MA,2139,949
Cambridge,MA,2139,950
Acton,MA,2169,951
Cambridge,MA,1061,952
Cambridge,MA,2169,953
Burlington,MA,2138,954
Cambridge,MA,1805,955
Cambridge,MA,2138,956
Cambridge,MA,5401,957
Cambridge,MA,2139,958
Burlington,MA,1850,959
Northampton,MA,1060,960
Acton,MA,1720,961
Cambridge,MA,2138,962
Marlborough,MA,1752,963
Burlington,MA,1805,964
Northampton,MA,1061,965
Quincy,MA,2169,966
Cambridge,MA,2138,967
Northampton,MA,1060,968
Cambridge,MA,2139,969
Burlington,MA,1805,970
Cambridge,MA,2138,971
Cambridge,MA,2138,972
Cambridge,MA,2138,973
Burlington,MA,1805,974
Quincy,MA,2169,975
Cambridge,MA,2142,976
Quincy,MA,2169,977
Burlington,MA,1803,978
Northampton,MA,1060,979
Cambridge,MA,2139,980
Cambridge,MA,2138,981
Cambridge,MA,2138,982
Burlington,MA,1805,983
Cambridge,MA,2138,984
Cambridge,MA,2139,985
Northampton,MA,1060,986
Cambridge,MA,2139,987
Cambridge,MA,2139,988
Cambridge,MA,2139,989
Quincy,MA,2169,990
Cambridge,MA,2142,991
Burlington,MA,1805,992
Cambridge,MA,2138,993
Marlborough,MA,1752,994
Cambridge,MA,2139,995
Cambridge,MA,2139,996
Burlington,MA,1805,997
Cambridge,MA,2139,998
Quincy,MA,2169,999
Burlington,MA,1803,1000
Burlington,MA,1805,1001
Cambridge,MA,2139,1002
Cambridge,MA,2139,1003
Burlington,MA,1805,1004
Cambridge,MA,2138,1005
Northampton,MA,1060,1006
Acton,MA,1720,1007
Cambridge,MA,2138,1008
Cambridge,MA,2138,1009
Burlington,MA,1803,1010
Northampton,MA,1060,1011
Burlington,MA,1805,1012
Cambridge,MA,2138,1013
Cambridge,MA,2138,1014
Cambridge,MA,2138,1015
Cambridge,MA,2139,1016
Quincy,MA,2169,1017
Cambridge,AL,2139,1018
CAMBRIDGE,MA,2138,1019
Cambridge,MA,2138,1020
Quincy,MA,2169,1021
Burlington,MA,1805,1022
Cambridge,MA,2139,1023
Burlington,MA,1890,1024
Cambridge,MA,2142,1025
Cambridge,AL,2139,1026
Cambridge,MA,2141,1027
Burlington,MA,1805,1028
Burlington,MA,1805,1029
Cambridge,MA,2139,1030
Burlington,MA,1805,1031
Marlborough,MA,1752,1032
Quincy,MA,2169,1033
Burlington,MA,1803,1034
Burlington,MA,1805,1035
Cambridge,MA,2139,1036
Burlington,MA,1803,1037
Cambridge,MA,2138,1038
Cambridge,MA,2138,1039
Cambridge,MA,2138,1040
Quincy,MA,2170,1041
Burlington,MA,1805,1042
Cambridge,MA,2139,1043
Burlington,MA,1805,1044
Northampton,MA,1060,1045
Marlborough,MA,1752,1046
Cambridge,MA,2139,1047
Cambridge,MA,2138,1048
Cambridge,MA,2139,1049
Northampton,MA,1060,1050
Burlington,MA,2215,1051
Northampton,MA,1060,1052
Northampton,MA,1060,1053
Marlborough,MA,1752,1054
Burlington,MA,1805,1055
Cambridge,MA,2141,1056
Burlington,MA,1805,1057
Cambridge,MA,2138,1058
Cambridge,MA,2142,1059
Cambridge,MA,2138,1060
Cambridge,MA,2139,1061
Burlington,MA,1803,1062
Cambridge,MA,2238,1063
Cambridge,MA,2142,1064
Cambridge,MA,2142,1065
Cambridge,MA,2139,1066
